[{"OBJECT_NAME":"SJ-11-05","OBJECT_ID":"2013-035A","EPOCH":"2026-03-09T22:35:58.811424","MEAN_MOTION":14.64778924,"ECCENTRICITY":0.0009824,"INCLINATION":98.2837,"RA_OF_ASC_NODE":253.0653,"ARG_OF_PERICENTER":179.2606,"MEAN_ANOMALY":180.8612,"EPHEMERIS_TYPE":0,"CLASSIFICATION_TYPE":"U","NORAD_CAT_ID":39202,"ELEMENT_SET_NO":999,"REV_AT_EPOCH":67470,"BSTAR":0.00019288768,"MEAN_MOTION_DOT":9.8e-6,"MEAN_MOTION_DDOT":0},{"OBJECT_NAME":"SPOT 2","OBJECT_ID":"1990-005A","EPOCH":"2026-03-09T21:55:30.289728","MEAN_MOTION":14.73729036,"ECCENTRICITY":0.01297919,"INCLINATION":98.6985,"RA_OF_ASC_NODE":218.7434,"ARG_OF_PERICENTER":40.4901,"MEAN_ANOMALY":320.5875,"EPHEMERIS_TYPE":0,"CLASSIFICATION_TYPE":"U","NORAD_CAT_ID":20436,"ELEMENT_SET_NO":999,"REV_AT_EPOCH":90070,"BSTAR":0.00013767957,"MEAN_MOTION_DOT":9.62e-6,"MEAN_MOTION_DDOT":0}]
